{
  "type": "FeatureCollection",
  "features": [
    {
      "type": "Feature",
      "properties": {
        "id": "a1111111-1111-1111-1111-111111111111",
        "zone_name": "Ward 12 (Civil Lines)",
        "department": "Public Works Department (PWD)",
        "city": "Jaipur",
        "city_code": "JPR",
        "official_handle": "@Jaipur_PWD_Official",
        "center": [26.9068, 75.7873]
      },
      "geometry": {
        "type": "Polygon",
        "coordinates": [
          [
            [75.775, 26.898],
            [75.800, 26.898],
            [75.800, 26.915],
            [75.775, 26.915],
            [75.775, 26.898]
          ]
        ]
      }
    },
    {
      "type": "Feature",
      "properties": {
        "id": "a2222222-2222-2222-2222-222222222222",
        "zone_name": "Ward 15 (Malviya Nagar)",
        "department": "Solid Waste Management (SWM)",
        "city": "Jaipur",
        "city_code": "JPR",
        "official_handle": "@Jaipur_SWM_Zone",
        "center": [26.8528, 75.8237]
      },
      "geometry": {
        "type": "Polygon",
        "coordinates": [
          [
            [75.810, 26.840],
            [75.838, 26.840],
            [75.838, 26.865],
            [75.810, 26.865],
            [75.810, 26.840]
          ]
        ]
      }
    },
    {
      "type": "Feature",
      "properties": {
        "id": "a3333333-3333-3333-3333-333333333333",
        "zone_name": "Ward 22 (Mansarovar)",
        "department": "Jaipur Vidyut Vitaran (JVVNL)",
        "city": "Jaipur",
        "city_code": "JPR",
        "official_handle": "@JVVNL_Mansarovar",
        "center": [26.8642, 75.7675]
      },
      "geometry": {
        "type": "Polygon",
        "coordinates": [
          [
            [75.750, 26.850],
            [75.785, 26.850],
            [75.785, 26.878],
            [75.750, 26.878],
            [75.750, 26.850]
          ]
        ]
      }
    },
    {
      "type": "Feature",
      "properties": {
        "id": "a4444444-4444-4444-4444-444444444444",
        "zone_name": "Ward 8 (Vaishali Nagar)",
        "department": "Public Health Engineering (PHED)",
        "city": "Jaipur",
        "city_code": "JPR",
        "official_handle": "@PHED_JaipurWest",
        "center": [26.9124, 75.7412]
      },
      "geometry": {
        "type": "Polygon",
        "coordinates": [
          [
            [75.725, 26.900],
            [75.755, 26.900],
            [75.755, 26.925],
            [75.725, 26.925],
            [75.725, 26.900]
          ]
        ]
      }
    },
    {
      "type": "Feature",
      "properties": {
        "id": "a5555555-5555-5555-5555-555555555555",
        "zone_name": "Ward 30 (Sanganer)",
        "department": "Municipal Drainage & Sewerage",
        "city": "Jaipur",
        "city_code": "JPR",
        "official_handle": "@Jaipur_Drainage",
        "center": [26.8184, 75.7769]
      },
      "geometry": {
        "type": "Polygon",
        "coordinates": [
          [
            [75.760, 26.800],
            [75.795, 26.800],
            [75.795, 26.835],
            [75.760, 26.835],
            [75.760, 26.800]
          ]
        ]
      }
    }
  ]
}
